IRIDIUM 171             
1 43929U 19002H   24242.43026635  .00000147  00000+0  45583-4 0  9992
2 43929  86.3923 268.2475 0002192  99.9176 260.2267 14.34217435294823
IRIDIUM 170             
1 43930U 19002J   24242.32518214  .00001001  00000+0  15485-3 0  9998
2 43930  86.6045 268.0984 0002618  91.7210 268.4307 14.72250222302613
IRIDIUM 167             
1 43931U 19002K   24242.77276554  .00000321  00000+0  10758-3 0  9998
2 43931  86.3914 267.8869 0002171  94.6100 265.5343 14.34218910294871
IRIDIUM 181             
1 56726U 23068S   24242.51333787  .00001194  00000+0  34676-3 0  9999
2 56726  86.8669 325.3138 0001870  95.4771 264.6644 14.43589840 67714
IRIDIUM 177             
1 56727U 23068T   24242.37015761  .00003270  00000+0  42675-3 0  9998
2 56727  86.1936 280.6108 0002079  93.0682 267.0777 14.80238883 69201
IRIDIUM 174             
1 56728U 23068U   24242.36472413  .00003650  00000+0  47670-3 0  9991
2 56728  86.1943 280.7229 0001783  97.1805 262.9618 14.80239228 69200
IRIDIUM 178             
1 56729U 23068V   24242.42690528  .00003316  00000+0  43275-3 0  9994
2 56729  86.5773 301.6395 0002076 102.4049 257.7405 14.80247405 69212
IRIDIUM 179             
1 56730U 23068W   24242.42150212  .00003920  00000+0  51301-3 0  9997
2 56730  86.6792 306.7011 0002222  85.7893 274.3582 14.80176844 69219
